[
    {
        "Altitude(m)": 604234.613771113,
        "Argument of Periapsis(deg)": 0.0,
        "Eccentricity": 0.0,
        "Inclination(deg)": 60.0,
        "Latitude(deg)": 14.117261662121265,
        "Longitude(deg)": 26.72730470962853,
        "Mean Anomaly(deg)": -196.36360000000005,
        "RAAN(deg)": 315.0,
        "Satellite Name": "Test1 1396",
        "Satellite Number": 1396,
        "Semi-Major Axis(m)": 6980739.136638005,
        "Time(s)": 0
    },
    {
        "Altitude(m)": 604223.4422583487,
        "Argument of Periapsis(deg)": 0.00010418945913296404,
        "Eccentricity": 0.0,
        "Inclination(deg)": 60.0,
        "Latitude(deg)": 13.582398487517844,
        "Longitude(deg)": 27.014214807735375,
        "Mean Anomaly(deg)": -195.7434938545382,
        "RAAN(deg)": 314.99957995086027,
        "Satellite Name": "Test1 1396",
        "Satellite Number": 1396,
        "Semi-Major Axis(m)": 6980739.136638005,
        "Time(s)": 10
    }
]